[{"OBJECT_NAME":"ONEWEB-0400","OBJECT_ID":"2021-132M","EPOCH":"2026-03-09T20:07:00.465312","MEAN_MOTION":13.18686798,"ECCENTRICITY":0.00019702,"INCLINATION":87.9252,"RA_OF_ASC_NODE":355.1736,"ARG_OF_PERICENTER":77.7422,"MEAN_ANOMALY":282.3931,"EPHEMERIS_TYPE":0,"CLASSIFICATION_TYPE":"U","NORAD_CAT_ID":50480,"ELEMENT_SET_NO":999,"REV_AT_EPOCH":20851,"BSTAR":8.7639317e-5,"MEAN_MOTION_DOT":4.7e-7,"MEAN_MOTION_DDOT":0},{"OBJECT_NAME":"SL-14 DEB","OBJECT_ID":"1991-056U","EPOCH":"2026-03-09T21:38:35.637504","MEAN_MOTION":13.16787304,"ECCENTRICITY":0.00154221,"INCLINATION":82.6187,"RA_OF_ASC_NODE":227.6273,"ARG_OF_PERICENTER":80.2108,"MEAN_ANOMALY":280.0755,"EPHEMERIS_TYPE":0,"CLASSIFICATION_TYPE":"U","NORAD_CAT_ID":45282,"ELEMENT_SET_NO":999,"REV_AT_EPOCH":29131,"BSTAR":0.0016322348,"MEAN_MOTION_DOT":6.39e-6,"MEAN_MOTION_DDOT":0}]
